{"type": "FeatureCollection", "features": [{"type": "Feature", "properties": {"norad_id": 22675, "name": "COSMOS 2251", "group": "cosmos-2251-debris", "lat": -46.74477682927813, "lon": -62.58140325879465, "alt_km": 786.3798356379384, "timestamp": "2025-12-13T03:42:11.664394+00:00", "meta": {"OBJECT_NAME": "COSMOS 2251", "OBJECT_ID": "1993-036A", "EPOCH": "2025-12-12T06:09:14.300928", "MEAN_MOTION": 14.3320458, "ECCENTRICITY": 0.00239428, "INCLINATION": 74.0395, "RA_OF_ASC_NODE": 316.7665, "ARG_OF_PERICENTER": 39.1912, "MEAN_ANOMALY": 321.0967, "EPHEMERIS_TYPE": 0, "CLASSIFICATION_TYPE": "U", "NORAD_CAT_ID": 22675, "ELEMENT_SET_NO": 999, "REV_AT_EPOCH": 69766, "BSTAR": 9.0440166e-05, "MEAN_MOTION_DOT": 2.23e-06, "MEAN_MOTION_DDOT": 0}, "tle": {"line1": "1 22675U 93036A   25346.25641552  .00000223  00000+0  90440-4 0  9990", "line2": "2 22675  74.0395 316.7665 0023942  39.1912 321.0967 14.33204580697663"}}, "geometry": {"type": "Point", "coordinates": [-62.58140325879465, -46.74477682927813]}}, {"type": "Feature", "properties": {"norad_id": 33757, "name": "COSMOS 2251 DEB", "group": "cosmos-2251-debris", "lat": -10.65165079994942, "lon": -40.23240276371567, "alt_km": 776.3685314686381, "timestamp": "2025-12-13T03:42:11.664417+00:00", "meta": {"OBJECT_NAME": "COSMOS 2251 DEB", "OBJECT_ID": "1993-036E", "EPOCH": "2025-12-12T06:27:34.218720", "MEAN_MOTION": 14.32580831, "ECCENTRICITY": 0.0015237, "INCLINATION": 74.0368, "RA_OF_ASC_NODE": 324.4688, "ARG_OF_PERICENTER": 337.8088, "MEAN_ANOMALY": 128.0067, "EPHEMERIS_TYPE": 0, "CLASSIFICATION_TYPE": "U", "NORAD_CAT_ID": 33757, "ELEMENT_SET_NO": 999, "REV_AT_EPOCH": 87989, "BSTAR": 7.5793531e-05, "MEAN_MOTION_DOT": 1.8e-06, "MEAN_MOTION_DDOT": 0}, "tle": {"line1": "1 33757U 93036E   25346.26914605  .00000180  00000+0  75794-4 0  9993", "line2": "2 33757  74.0368 324.4688 0015237 337.8088 128.0067 14.32580831879895"}}, "geometry": {"type": "Point", "coordinates": [-40.23240276371567, -10.65165079994942]}}, {"type": "Feature", "properties": {"norad_id": 33758, "name": "COSMOS 2251 DEB", "group": "cosmos-2251-debris", "lat": -35.526144854357824, "lon": -157.54974866155968, "alt_km": 717.1749708421094, "timestamp": "2025-12-13T03:42:11.664431+00:00", "meta": {"OBJECT_NAME": "COSMOS 2251 DEB", "OBJECT_ID": "1993-036F", "EPOCH": "2025-12-12T01:41:30.284160", "MEAN_MOTION": 14.51588537, "ECCENTRICITY": 0.00173934, "INCLINATION": 74.0278, "RA_OF_ASC_NODE": 216.2905, "ARG_OF_PERICENTER": 283.2166, "MEAN_ANOMALY": 138.1497, "EPHEMERIS_TYPE": 0, "CLASSIFICATION_TYPE": "U", "NORAD_CAT_ID": 33758, "ELEMENT_SET_NO": 999, "REV_AT_EPOCH": 88295, "BSTAR": 0.0012683573, "MEAN_MOTION_DOT": 5.065e-05, "MEAN_MOTION_DDOT": 0}, "tle": {"line1": "1 33758U 93036F   25346.07048940  .00005065  00000+0  12684-2 0  9997", "line2": "2 33758  74.0278 216.2905 0017393 283.2166 138.1497 14.51588537882954"}}, "geometry": {"type": "Point", "coordinates": [-157.54974866155968, -35.526144854357824]}}, {"type": "Feature", "properties": {"norad_id": 33760, "name": "COSMOS 2251 DEB", "group": "cosmos-2251-debris", "lat": -57.03374526646132, "lon": 126.89345577238421, "alt_km": 790.1237941247109, "timestamp": "2025-12-13T03:42:11.664444+00:00", "meta": {"OBJECT_NAME": "COSMOS 2251 DEB", "OBJECT_ID": "1993-036H", "EPOCH": "2025-12-12T07:04:09.414624", "MEAN_MOTION": 14.35672277, "ECCENTRICITY": 0.00198433, "INCLINATION": 74.0321, "RA_OF_ASC_NODE": 282.273, "ARG_OF_PERICENTER": 20.7049, "MEAN_ANOMALY": 98.4044, "EPHEMERIS_TYPE": 0, "CLASSIFICATION_TYPE": "U", "NORAD_CAT_ID": 33760, "ELEMENT_SET_NO": 999, "REV_AT_EPOCH": 88118, "BSTAR": 0.00017997127, "MEAN_MOTION_DOT": 4.94e-06, "MEAN_MOTION_DDOT": 0}, "tle": {"line1": "1 33760U 93036H   25346.29455341  .00000494  00000+0  17997-3 0  9995", "line2": "2 33760  74.0321 282.2730 0019843  20.7049  98.4044 14.35672277881188"}}, "geometry": {"type": "Point", "coordinates": [126.89345577238421, -57.03374526646132]}}, {"type": "Feature", "properties": {"norad_id": 33761, "name": "COSMOS 2251 DEB", "group": "cosmos-2251-debris", "lat": 0.1160572211627795, "lon": 71.36138725645769, "alt_km": 767.1651487100426, "timestamp": "2025-12-13T03:42:11.664455+00:00", "meta": {"OBJECT_NAME": "COSMOS 2251 DEB", "OBJECT_ID": "1993-036J", "EPOCH": "2025-12-11T21:14:57.625152", "MEAN_MOTION": 14.4254149, "ECCENTRICITY": 0.002305, "INCLINATION": 74.0364, "RA_OF_ASC_NODE": 253.7479, "ARG_OF_PERICENTER": 334.192, "MEAN_ANOMALY": 98.6964, "EPHEMERIS_TYPE": 0, "CLASSIFICATION_TYPE": "U", "NORAD_CAT_ID": 33761, "ELEMENT_SET_NO": 999, "REV_AT_EPOCH": 88222, "BSTAR": 0.00076228, "MEAN_MOTION_DOT": 2.511e-05, "MEAN_MOTION_DDOT": 0}, "tle": {"line1": "1 33761U 93036J   25345.88538918  .00002511  00000+0  76228-3 0  9996", "line2": "2 33761  74.0364 253.7479 0023050 334.1920  98.6964 14.42541490882223"}}, "geometry": {"type": "Point", "coordinates": [71.36138725645769, 0.1160572211627795]}}, {"type": "Feature", "properties": {"norad_id": 33762, "name": "COSMOS 2251 DEB", "group": "cosmos-2251-debris", "lat": 3.8669846808954063, "lon": 128.16102527724937, "alt_km": 791.9673717400992, "timestamp": "2025-12-13T03:42:11.664466+00:00", "meta": {"OBJECT_NAME": "COSMOS 2251 DEB", "OBJECT_ID": "1993-036K", "EPOCH": "2025-12-12T07:18:18.391392", "MEAN_MOTION": 14.33663572, "ECCENTRICITY": 0.00149791, "INCLINATION": 74.0416, "RA_OF_ASC_NODE": 310.8225, "ARG_OF_PERICENTER": 12.3991, "MEAN_ANOMALY": 98.5723, "EPHEMERIS_TYPE": 0, "CLASSIFICATION_TYPE": "U", "NORAD_CAT_ID": 33762, "ELEMENT_SET_NO": 999, "REV_AT_EPOCH": 88041, "BSTAR": 9.0014933e-05, "MEAN_MOTION_DOT": 2.24e-06, "MEAN_MOTION_DDOT": 0}, "tle": {"line1": "1 33762U 93036K   25346.30437953  .00000224  00000+0  90015-4 0  9992", "line2": "2 33762  74.0416 310.8225 0014979  12.3991  98.5723 14.33663572880416"}}, "geometry": {"type": "Point", "coordinates": [128.16102527724937, 3.8669846808954063]}}, {"type": "Feature", "properties": {"norad_id": 33764, "name": "COSMOS 2251 DEB", "group": "cosmos-2251-debris", "lat": -33.93759092491945, "lon": -99.2155449226923, "alt_km": 765.031901113668, "timestamp": "2025-12-13T03:42:11.664476+00:00", "meta": {"OBJECT_NAME": "COSMOS 2251 DEB", "OBJECT_ID": "1993-036M", "EPOCH": "2025-12-12T06:44:45.126240", "MEAN_MOTION": 14.39509269, "ECCENTRICITY": 0.00239765, "INCLINATION": 74.0337, "RA_OF_ASC_NODE": 273.504, "ARG_OF_PERICENTER": 239.3377, "MEAN_ANOMALY": 241.5575, "EPHEMERIS_TYPE": 0, "CLASSIFICATION_TYPE": "U", "NORAD_CAT_ID": 33764, "ELEMENT_SET_NO": 999, "REV_AT_EPOCH": 88150, "BSTAR": 0.00054282511, "MEAN_MOTION_DOT": 1.672e-05, "MEAN_MOTION_DDOT": 0}, "tle": {"line1": "1 33764U 93036M   25346.28107785  .00001672  00000+0  54283-3 0  9992", "line2": "2 33764  74.0337 273.5040 0023976 239.3377 241.5575 14.39509269881500"}}, "geometry": {"type": "Point", "coordinates": [-99.2155449226923, -33.93759092491945]}}, {"type": "Feature", "properties": {"norad_id": 33765, "name": "COSMOS 2251 DEB", "group": "cosmos-2251-debris", "lat": -70.20896850086376, "lon": 45.089705867814104, "alt_km": 498.0285262777761, "timestamp": "2025-12-13T03:42:11.664487+00:00", "meta": {"OBJECT_NAME": "COSMOS 2251 DEB", "OBJECT_ID": "1993-036N", "EPOCH": "2025-12-12T06:39:28.895328", "MEAN_MOTION": 15.09951715, "ECCENTRICITY": 0.0065491, "INCLINATION": 74.0089, "RA_OF_ASC_NODE": 174.063, "ARG_OF_PERICENTER": 266.284, "MEAN_ANOMALY": 267.2934, "EPHEMERIS_TYPE": 0, "CLASSIFICATION_TYPE": "U", "NORAD_CAT_ID": 33765, "ELEMENT_SET_NO": 999, "REV_AT_EPOCH": 89611, "BSTAR": 0.002746221, "MEAN_MOTION_DOT": 0.0004715, "MEAN_MOTION_DDOT": 0}, "tle": {"line1": "1 33765U 93036N   25346.27741777  .00047150  00000+0  27462-2 0  9996", "line2": "2 33765  74.0089 174.0630 0065491 266.2840 267.2934 15.09951715896119"}}, "geometry": {"type": "Point", "coordinates": [45.089705867814104, -70.20896850086376]}}, {"type": "Feature", "properties": {"norad_id": 33766, "name": "COSMOS 2251 DEB", "group": "cosmos-2251-debris", "lat": -0.9368777408029422, "lon": 133.9611840641204, "alt_km": 735.3261520147462, "timestamp": "2025-12-13T03:42:11.664497+00:00", "meta": {"OBJECT_NAME": "COSMOS 2251 DEB", "OBJECT_ID": "1993-036P", "EPOCH": "2025-12-12T04:16:57.373248", "MEAN_MOTION": 14.34931933, "ECCENTRICITY": 0.00641504, "INCLINATION": 74.1856, "RA_OF_ASC_NODE": 135.9982, "ARG_OF_PERICENTER": 339.5163, "MEAN_ANOMALY": 20.3419, "EPHEMERIS_TYPE": 0, "CLASSIFICATION_TYPE": "U", "NORAD_CAT_ID": 33766, "ELEMENT_SET_NO": 999, "REV_AT_EPOCH": 87737, "BSTAR": 0.00084043032, "MEAN_MOTION_DOT": 2.422e-05, "MEAN_MOTION_DDOT": 0}, "tle": {"line1": "1 33766U 93036P   25346.17844182  .00002422  00000+0  84043-3 0  9992", "line2": "2 33766  74.1856 135.9982 0064150 339.5163  20.3419 14.34931933877372"}}, "geometry": {"type": "Point", "coordinates": [133.9611840641204, -0.9368777408029422]}}, {"type": "Feature", "properties": {"norad_id": 33768, "name": "COSMOS 2251 DEB", "group": "cosmos-2251-debris", "lat": 5.503684935593698, "lon": 37.62215149422493, "alt_km": 1292.3583611999265, "timestamp": "2025-12-13T03:42:11.664508+00:00", "meta": {"OBJECT_NAME": "COSMOS 2251 DEB", "OBJECT_ID": "1993-036R", "EPOCH": "2025-12-12T02:41:57.418368", "MEAN_MOTION": 13.58453918, "ECCENTRICITY": 0.03662971, "INCLINATION": 74.0682, "RA_OF_ASC_NODE": 220.8801, "ARG_OF_PERICENTER": 18.757, "MEAN_ANOMALY": 100.6517, "EPHEMERIS_TYPE": 0, "CLASSIFICATION_TYPE": "U", "NORAD_CAT_ID": 33768, "ELEMENT_SET_NO": 999, "REV_AT_EPOCH": 83287, "BSTAR": 0.00047720722, "MEAN_MOTION_DOT": 5.18e-06, "MEAN_MOTION_DDOT": 0}, "tle": {"line1": "1 33768U 93036R   25346.11247012  .00000518  00000+0  47721-3 0  9993", "line2": "2 33768  74.0682 220.8801 0366297  18.7570 100.6517 13.58453918832873"}}, "geometry": {"type": "Point", "coordinates": [37.62215149422493, 5.503684935593698]}}]}